NORAD_CAT_ID,OBJECT_NAME,OBJECT_TYPE,EPOCH,MEAN_MOTION,ECCENTRICITY,INCLINATION,RA_OF_ASC_NODE,ARG_OF_PERICENTER,MEAN_ANOMALY,BSTAR,MEAN_MOTION_DOT,MEAN_MOTION_DDOT,TLE_LINE0,TLE_LINE1,TLE_LINE2,SEMIMAJOR_AXIS,PERIOD,APOGEE,PERIGEE,DECAYED
50182.0,STARLINK-3277,PAYLOAD,2023-01-12 06:48:33,15.08840132,0.00026,53.2157,22.4784,47.7548,312.3664,0.00019302,2.785e-05,0.0,0 STARLINK-3277,1 50182U 21125AC  23012.28372376  .00002785  00000-0  19302-3 0  9993,2 50182  53.2157  22.4784 0002600  47.7548 312.3664 15.08840132 62141,6917.88,95.438,541.544,537.946,0.0
50182.0,STARLINK-3277,PAYLOAD,2023-01-12 17:56:15,15.08842324,0.0002366,53.215,20.3946,59.8053,300.3174,8.6976e-05,1.096e-05,0.0,0 STARLINK-3277,1 50182U 21125AC  23012.74740166  .00001096  00000-0  86976-4 0  9996,2 50182  53.2150  20.3946 0002366  59.8053 300.3174 15.08842324 62738,6917.873000000001,95.437,541.375,538.102,0.0
50182.0,STARLINK-3277,PAYLOAD,2023-01-13 06:39:20,15.08843633,0.0002266,53.2154,18.0151,66.0291,294.0938,8.4597e-05,1.058e-05,0.0,0 STARLINK-3277,1 50182U 21125AC  23013.27732248  .00001058  00000-0  84597-4 0  9992,2 50182  53.2154  18.0151 0002266  66.0291 294.0938 15.08843633 62817,6917.869000000001,95.437,541.302,538.1669999999999,0.0
50182.0,STARLINK-3277,PAYLOAD,2023-01-13 17:47:02,15.08845529,0.0002295,53.2154,15.9341,65.8307,294.2925,7.703899999999999e-05,9.38e-06,0.0,0 STARLINK-3277,1 50182U 21125AC  23013.74100139  .00000938  00000-0  77039-4 0  9991,2 50182  53.2154  15.9341 0002295  65.8307 294.2925 15.08845529 62365,6917.863,95.437,541.316,538.141,0.0
50182.0,STARLINK-3277,PAYLOAD,2023-01-14 23:59:22,15.0883646,0.0001909999999999,53.2169,10.2854,71.8059,288.3141,6.7974e-05,7.94e-06,0.0,0 STARLINK-3277,1 50182U 21125AC  23014.99956769  .00000794  00000-0  67974-4 0  9994,2 50182  53.2169  10.2854 0001910  71.8059 288.3141 15.08836460 62551,6917.891,95.438,541.078,538.435,0.0
50182.0,STARLINK-3277,PAYLOAD,2023-01-15 09:31:41,15.08852245,0.0002353,53.2153,8.5006,81.2504,278.8755,0.00035428,5.357e-05,0.0,0 STARLINK-3277,1 50182U 21125AC  23015.39700281  .00005357  00000-0  35428-3 0  9993,2 50182  53.2153   8.5006 0002353  81.2504 278.8755 15.08852245 63134,6917.843000000001,95.437,541.336,538.08,0.0
50182.0,STARLINK-3277,PAYLOAD,2023-01-15 15:53:13,15.08845582,0.0002366,53.2171,7.3096,82.1581,277.968,0.00025725,3.809e-05,0.0,0 STARLINK-3277,1 50182U 21125AC  23015.66196379  .00003809  00000-0  25725-3 0  9999,2 50182  53.2171   7.3096 0002366  82.1581 277.9680 15.08845582 62658,6917.863,95.437,541.365,538.092,0.0
50182.0,STARLINK-3277,PAYLOAD,2023-01-16 06:11:40,15.0887401,0.0001935,53.2159,4.6346,83.8068,276.3145,0.00079905,0.00012464,0.0,0 STARLINK-3277,1 50182U 21125AC  23016.25811031  .00012464  00000-0  79905-3 0  9990,2 50182  53.2159   4.6346 0001935  83.8068 276.3145 15.08874010 62748,6917.776,95.435,540.98,538.303,0.0
50182.0,STARLINK-3277,PAYLOAD,2023-01-16 09:22:26,15.08879126,0.0001902,53.2157,4.0395,85.1726,274.9483,0.0010834,0.00017015,0.0,0 STARLINK-3277,1 50182U 21125AC  23016.39058860  .00017015  00000-0  10834-2 0  9990,2 50182  53.2157   4.0395 0001902  85.1726 274.9483 15.08879126 63286,6917.761,95.435,540.942,538.31,0.0
50182.0,STARLINK-3277,PAYLOAD,2023-01-16 15:44:00,15.08839216,0.0001892,53.2165,2.8503,95.0417,265.0791,-0.00016945,-2.984e-05,0.0,0 STARLINK-3277,1 50182U 21125AC  23016.65555578 -.00002984  00000-0 -16945-3 0  9998,2 50182  53.2165   2.8503 0001892  95.0417 265.0791 15.08839216 62803,6917.883000000001,95.438,541.057,538.439,0.0
50182.0,STARLINK-3277,PAYLOAD,2023-01-17 07:37:51,15.08837385,0.0001973,53.2145,359.8763,101.985,258.1363,-9.3135e-05,-1.77e-05,0.0,0 STARLINK-3277,1 50182U 21125AC  23017.31795826 -.00001770  00000-0 -93135-4 0  9993,2 50182  53.2145 359.8763 0001973 101.9850 258.1363 15.08837385 63424,6917.888000000001,95.438,541.118,538.388,0.0
50182.0,STARLINK-3277,PAYLOAD,2023-01-17 21:56:20,15.08830278,0.0002258,53.2159,357.2014,97.4183,262.7065,-2.6403e-05,-7.08e-06,0.0,0 STARLINK-3277,1 50182U 21125AC  23017.91412654 -.00000708  00000-0 -26403-4 0  9998,2 50182  53.2159 357.2014 0002258  97.4183 262.7065 15.08830278 63519,6917.91,95.438,541.337,538.2130000000001,0.0
50182.0,STARLINK-3277,PAYLOAD,2023-01-17 23:31:43,15.08822655,0.0001918,53.2161,356.9034,101.8962,258.2245,-0.00019552,-3.397e-05,0.0,0 STARLINK-3277,1 50182U 21125AC  23017.98036841 -.00003397  00000-0 -19552-3 0  9998,2 50182  53.2161 356.9034 0001918 101.8962 258.2245 15.08822655 63001,6917.933000000001,95.439,541.125,538.472,0.0
50182.0,STARLINK-3277,PAYLOAD,2023-01-18 07:28:39,15.08834134,0.0002134999999999,53.2163,355.4164,100.0985,260.0248,0.00023794,3.5e-05,0.0,0 STARLINK-3277,1 50182U 21125AC  23018.31156990  .00003500  00000-0  23794-3 0  9991,2 50182  53.2163 355.4164 0002135 100.0985 260.0248 15.08834134 63570,6917.898,95.438,541.24,538.286,0.0
50182.0,STARLINK-3277,PAYLOAD,2023-01-18 15:25:35,15.08843753,0.0002041,53.216,353.9284,102.0017,258.1204,0.00065862,0.00010211,0.0,0 STARLINK-3277,1 50182U 21125AC  23018.64276999  .00010211  00000-0  65862-3 0  9998,2 50182  53.2160 353.9284 0002041 102.0017 258.1204 15.08843753 63103,6917.869000000001,95.437,541.146,538.322,0.0
50182.0,STARLINK-3277,PAYLOAD,2023-01-19 07:19:25,15.08871973,0.0001859,53.215,350.9553,108.6571,251.4623,0.0011147,0.00017513,0.0,0 STARLINK-3277,1 50182U 21125AC  23019.30516021  .00017513  00000-0  11147-2 0  9993,2 50182  53.2150 350.9553 0001859 108.6571 251.4623 15.08871973 63208,6917.783,95.436,540.934,538.362,0.0
50182.0,STARLINK-3277,PAYLOAD,2023-01-19 16:51:45,15.08841555,0.0001809,53.2159,349.1735,99.3267,260.7929,-5.0837e-05,-1.097e-05,0.0,0 STARLINK-3277,1 50182U 21125AC  23019.70260577 -.00001097  00000-0 -50837-4 0  9992,2 50182  53.2159 349.1735 0001809  99.3267 260.7929 15.08841555 63263,6917.876,95.437,540.992,538.489,0.0
50182.0,STARLINK-3277,PAYLOAD,2023-01-20 03:59:27,15.0882961,0.00015,53.2154,347.0889,91.6663,268.45,0.00014866,2.078e-05,0.0,0 STARLINK-3277,1 50182U 21125AC  23020.16629270  .00002078  00000-0  14866-3 0  9992,2 50182  53.2154 347.0889 0001500  91.6663 268.4500 15.08829610 63334,6917.911999999999,95.438,540.815,538.739,0.0
50182.0,STARLINK-3277,PAYLOAD,2023-01-20 07:10:14,15.08832457,0.0001929,53.2147,346.4941,89.8019,270.3195,0.00042942,6.551e-05,0.0,0 STARLINK-3277,1 50182U 21125AC  23020.29877396  .00006551  00000-0  42942-3 0  9996,2 50182  53.2147 346.4941 0001929  89.8019 270.3195 15.08832457 63871,6917.903,95.438,541.1030000000001,538.434,0.0
50182.0,STARLINK-3277,PAYLOAD,2023-01-21 07:01:01,15.08859382,0.0002037,53.216,342.0326,86.8771,273.2454,0.0013359,0.00021048,0.0,0 STARLINK-3277,1 50182U 21125AC  23021.29237729  .00021048  00000-0  13359-2 0  9994,2 50182  53.2160 342.0326 0002037  86.8771 273.2454 15.08859382 63504,6917.821,95.436,541.095,538.2769999999999,0.0
50182.0,STARLINK-3277,PAYLOAD,2023-01-22 03:41:03,15.08828554,0.0002311999999999,53.2149,338.1691,85.3913,274.7344,0.00034407,5.19e-05,0.0,0 STARLINK-3277,1 50182U 21125AC  23022.15351327  .00005190  00000-0  34407-3 0  9999,2 50182  53.2149 338.1691 0002312  85.3913 274.7344 15.08828554 63635,6917.915,95.438,541.38,538.181,0.0
50182.0,STARLINK-3277,PAYLOAD,2023-01-23 06:42:35,15.08899224,0.0001904,53.2169,333.1148,87.5634,272.5576,0.0019928,0.00031622,0.0,0 STARLINK-3277,1 50182U 21125AC  23023.27957773  .00031622  00000-0  19928-2 0  9999,2 50182  53.2169 333.1148 0001904  87.5634 272.5576 15.08899224 63803,6917.6990000000005,95.434,540.882,538.247,0.0
50182.0,STARLINK-3277,PAYLOAD,2023-01-23 13:04:08,15.08865741,0.0003253,53.2163,331.9211,75.9639,284.1714,0.0010248,0.00016071,0.0,0 STARLINK-3277,1 50182U 21125AC  23023.54454362  .00016071  00000-0  10248-2 0  9992,2 50182  53.2163 331.9211 0003253  75.9639 284.1714 15.08865741 63843,6917.802,95.436,541.9169999999999,537.4159999999999,0.0
50182.0,STARLINK-3277,PAYLOAD,2023-01-24 06:33:21,15.08871181,0.0001983,53.2178,328.6544,100.1277,259.9939,0.0015607999999999,0.00024661,0.0,0 STARLINK-3277,1 50182U 21125AC  23024.27316973  .00024661  00000-0  15608-2 0  9997,2 50182  53.2178 328.6544 0001983 100.1277 259.9939 15.08871181 63954,6917.785,95.436,541.0219999999999,538.278,0.0
50182.0,STARLINK-3277,PAYLOAD,2023-01-25 04:48:46,15.08841614,0.0001563,53.2167,324.4905,100.5156,259.6012,0.00041196,6.275e-05,0.0,0 STARLINK-3277,1 50182U 21125AC  23025.20053657  .00006275  00000-0  41196-3 0  9991,2 50182  53.2167 324.4905 0001563 100.5156 259.6012 15.08841614 64094,6917.875,95.437,540.822,538.659,0.0
50182.0,STARLINK-3277,PAYLOAD,2023-01-25 12:45:42,15.08840743,0.0001649,53.2168,323.0035,89.0586,271.0595,0.00067083,0.00010405,0.0,0 STARLINK-3277,1 50182U 21125AC  23025.53173951  .00010405  00000-0  67083-3 0  9990,2 50182  53.2168 323.0035 0001649  89.0586 271.0595 15.08840743 64666,6917.878000000001,95.438,540.884,538.602,0.0
50182.0,STARLINK-3277,PAYLOAD,2023-01-26 03:04:10,15.08847425,0.0001682,53.2166,320.329,87.9964,272.122,0.00065704,0.00010186,0.0,0 STARLINK-3277,1 50182U 21125AC  23026.12790006  .00010186  00000-0  65704-3 0  9996,2 50182  53.2166 320.3290 0001682  87.9964 272.1220 15.08847425 64235,6917.858,95.437,540.886,538.559,0.0
50182.0,STARLINK-3277,PAYLOAD,2023-01-27 01:19:34,15.0884125,0.0001530999999999,53.2155,316.1618,94.0585,266.0582,0.00013033,1.787e-05,0.0,0 STARLINK-3277,1 50182U 21125AC  23027.05525931  .00001787  00000-0  13033-3 0  9997,2 50182  53.2155 316.1618 0001531  94.0585 266.0582 15.08841250 64379,6917.877,95.437,540.8009999999999,538.682,0.0
50182.0,STARLINK-3277,PAYLOAD,2023-01-27 04:30:20,15.08851001,0.000154,53.2162,315.5664,91.1965,268.9204,0.00034823,5.260000000000001e-05,0.0,0 STARLINK-3277,1 50182U 21125AC  23027.18773665  .00005260  00000-0  34823-3 0  9990,2 50182  53.2162 315.5664 0001540  91.1965 268.9204 15.08851001 64390,6917.847,95.437,540.7769999999999,538.646,0.0
